[
  {
    "OBJECT_NAME": "STARLINK-3663",
    "OBJECT_ID": "22025W",
    "EPOCH": "2025-11-11T08:00:03.000384",
    "MEAN_MOTION": 15.84764514,
    "ECCENTRICITY": 0.0004855,
    "INCLINATION": 53.2037,
    "RA_OF_ASC_NODE": 124.1049,
    "ARG_OF_PERICENTER": 201.193,
    "MEAN_ANOMALY": 220.4768,
    "EPHEMERIS_TYPE": 0,
    "CLASSIFICATION_TYPE": "U",
    "NORAD_CAT_ID": 51976,
    "ELEMENT_SET_NO": 999,
    "REV_AT_EPOCH": 595,
    "BSTAR": 0.0014005,
    "MEAN_MOTION_DOT": 0.00344695,
    "MEAN_MOTION_DDOT": 0.0,
    "TLE_LINE1": "1 51976U 22025W   25315.33336806  .00344695  00000+0  14005-2 0  9999",
    "TLE_LINE2": "2 51976  53.2037 124.1049 0004855 201.1930 220.4768 15.84764514  5952",
    "COMMENT": "Grouped by shell and plane from TLE"
  },
  {
    "OBJECT_NAME": "STARLINK-11260 [DTC]",
    "OBJECT_ID": "24158H",
    "EPOCH": "2025-11-10T18:17:25.085760",
    "MEAN_MOTION": 15.69714445,
    "ECCENTRICITY": 0.0001578,
    "INCLINATION": 53.1557,
    "RA_OF_ASC_NODE": 125.3768,
    "ARG_OF_PERICENTER": 67.0928,
    "MEAN_ANOMALY": 293.0257,
    "EPHEMERIS_TYPE": 0,
    "CLASSIFICATION_TYPE": "U",
    "NORAD_CAT_ID": 60997,
    "ELEMENT_SET_NO": 999,
    "REV_AT_EPOCH": 6927,
    "BSTAR": 7.501900000000001e-06,
    "MEAN_MOTION_DOT": 3.2e-06,
    "MEAN_MOTION_DDOT": 0.0,
    "TLE_LINE1": "1 60997U 24158H   25314.76209590  .00000320  00000+0  75019-5 0  9995",
    "TLE_LINE2": "2 60997  53.1557 125.3768 0001578  67.0928 293.0257 15.69714445 69272",
    "COMMENT": "Grouped by shell and plane from TLE"
  },
  {
    "OBJECT_NAME": "STARLINK-11547 [DTC]",
    "OBJECT_ID": "25008A",
    "EPOCH": "2025-11-10T20:43:55.393248",
    "MEAN_MOTION": 15.70914667,
    "ECCENTRICITY": 0.0001825,
    "INCLINATION": 43.0,
    "RA_OF_ASC_NODE": 122.6227,
    "ARG_OF_PERICENTER": 287.0409,
    "MEAN_ANOMALY": 73.0259,
    "EPHEMERIS_TYPE": 0,
    "CLASSIFICATION_TYPE": "U",
    "NORAD_CAT_ID": 62587,
    "ELEMENT_SET_NO": 999,
    "REV_AT_EPOCH": 4742,
    "BSTAR": 0.0020379,
    "MEAN_MOTION_DOT": 0.00270576,
    "MEAN_MOTION_DDOT": 0.0,
    "TLE_LINE1": "1 62587U 25008A   25314.86383557  .00270576  00000+0  20379-2 0  9992",
    "TLE_LINE2": "2 62587  43.0000 122.6227 0001825 287.0409  73.0259 15.70914667 47424",
    "COMMENT": "Grouped by shell and plane from TLE"
  },
  {
    "OBJECT_NAME": "STARLINK-11185 [DTC]",
    "OBJECT_ID": "25008B",
    "EPOCH": "2025-11-10T21:29:35.443104",
    "MEAN_MOTION": 15.71007605,
    "ECCENTRICITY": 0.000611,
    "INCLINATION": 43.0007,
    "RA_OF_ASC_NODE": 121.9825,
    "ARG_OF_PERICENTER": 287.7777,
    "MEAN_ANOMALY": 72.2424,
    "EPHEMERIS_TYPE": 0,
    "CLASSIFICATION_TYPE": "U",
    "NORAD_CAT_ID": 62588,
    "ELEMENT_SET_NO": 999,
    "REV_AT_EPOCH": 4743,
    "BSTAR": 0.0026738,
    "MEAN_MOTION_DOT": 0.00360657,
    "MEAN_MOTION_DDOT": 0.0,
    "TLE_LINE1": "1 62588U 25008B   25314.89554911  .00360657  00000+0  26738-2 0  9995",
    "TLE_LINE2": "2 62588  43.0007 121.9825 0006110 287.7777  72.2424 15.71007605 47437",
    "COMMENT": "Grouped by shell and plane from TLE"
  },
  {
    "OBJECT_NAME": "STARLINK-11513 [DTC]",
    "OBJECT_ID": "25008C",
    "EPOCH": "2025-11-11T04:06:25.958592",
    "MEAN_MOTION": 15.70920591,
    "ECCENTRICITY": 8.76e-05,
    "INCLINATION": 42.9993,
    "RA_OF_ASC_NODE": 120.6203,
    "ARG_OF_PERICENTER": 299.1629,
    "MEAN_ANOMALY": 60.9151,
    "EPHEMERIS_TYPE": 0,
    "CLASSIFICATION_TYPE": "U",
    "NORAD_CAT_ID": 62589,
    "ELEMENT_SET_NO": 999,
    "REV_AT_EPOCH": 4747,
    "BSTAR": 0.0023489,
    "MEAN_MOTION_DOT": 0.00313666,
    "MEAN_MOTION_DDOT": 0.0,
    "TLE_LINE1": "1 62589U 25008C   25315.17113378  .00313666  00000+0  23489-2 0  9994",
    "TLE_LINE2": "2 62589  42.9993 120.6203 0000876 299.1629  60.9151 15.70920591 47474",
    "COMMENT": "Grouped by shell and plane from TLE"
  },
  {
    "OBJECT_NAME": "STARLINK-11397 [DTC]",
    "OBJECT_ID": "25008D",
    "EPOCH": "2025-11-10T19:35:06.970560",
    "MEAN_MOTION": 15.70900808,
    "ECCENTRICITY": 0.0001895,
    "INCLINATION": 42.9997,
    "RA_OF_ASC_NODE": 122.2368,
    "ARG_OF_PERICENTER": 299.7039,
    "MEAN_ANOMALY": 60.364,
    "EPHEMERIS_TYPE": 0,
    "CLASSIFICATION_TYPE": "U",
    "NORAD_CAT_ID": 62590,
    "ELEMENT_SET_NO": 999,
    "REV_AT_EPOCH": 4853,
    "BSTAR": 0.0023039000000000002,
    "MEAN_MOTION_DOT": 0.00307151,
    "MEAN_MOTION_DDOT": 0.0,
    "TLE_LINE1": "1 62590U 25008D   25314.81605290  .00307151  00000+0  23039-2 0  9998",
    "TLE_LINE2": "2 62590  42.9997 122.2368 0001895 299.7039  60.3640 15.70900808 48537",
    "COMMENT": "Grouped by shell and plane from TLE"
  },
  {
    "OBJECT_NAME": "STARLINK-11420 [DTC]",
    "OBJECT_ID": "25008E",
    "EPOCH": "2025-11-11T04:14:04.906752",
    "MEAN_MOTION": 15.70929507,
    "ECCENTRICITY": 8.63e-05,
    "INCLINATION": 42.9987,
    "RA_OF_ASC_NODE": 120.6624,
    "ARG_OF_PERICENTER": 5.5456,
    "MEAN_ANOMALY": 354.5421,
    "EPHEMERIS_TYPE": 0,
    "CLASSIFICATION_TYPE": "U",
    "NORAD_CAT_ID": 62591,
    "ELEMENT_SET_NO": 999,
    "REV_AT_EPOCH": 4865,
    "BSTAR": 0.0024693000000000002,
    "MEAN_MOTION_DOT": 0.00330582,
    "MEAN_MOTION_DDOT": 0.0,
    "TLE_LINE1": "1 62591U 25008E   25315.17644568  .00330582  00000+0  24693-2 0  9991",
    "TLE_LINE2": "2 62591  42.9987 120.6624 0000863   5.5456 354.5421 15.70929507 48659",
    "COMMENT": "Grouped by shell and plane from TLE"
  },
  {
    "OBJECT_NAME": "STARLINK-11415 [DTC]",
    "OBJECT_ID": "25008F",
    "EPOCH": "2025-11-10T20:59:12.814368",
    "MEAN_MOTION": 15.70918055,
    "ECCENTRICITY": 0.000184,
    "INCLINATION": 43.0006,
    "RA_OF_ASC_NODE": 122.7057,
    "ARG_OF_PERICENTER": 286.5669,
    "MEAN_ANOMALY": 73.4996,
    "EPHEMERIS_TYPE": 0,
    "CLASSIFICATION_TYPE": "U",
    "NORAD_CAT_ID": 62592,
    "ELEMENT_SET_NO": 999,
    "REV_AT_EPOCH": 4853,
    "BSTAR": 0.0019954,
    "MEAN_MOTION_DOT": 0.00264781,
    "MEAN_MOTION_DDOT": 0.0,
    "TLE_LINE1": "1 62592U 25008F   25314.87445387  .00264781  00000+0  19954-2 0  9997",
    "TLE_LINE2": "2 62592  43.0006 122.7057 0001840 286.5669  73.4996 15.70918055 48537",
    "COMMENT": "Grouped by shell and plane from TLE"
  },
  {
    "OBJECT_NAME": "STARLINK-11413 [DTC]",
    "OBJECT_ID": "25008G",
    "EPOCH": "2025-11-10T20:51:33.996672",
    "MEAN_MOTION": 15.70928038,
    "ECCENTRICITY": 0.0001934,
    "INCLINATION": 43.0021,
    "RA_OF_ASC_NODE": 122.6634,
    "ARG_OF_PERICENTER": 312.2816,
    "MEAN_ANOMALY": 47.7888,
    "EPHEMERIS_TYPE": 0,
    "CLASSIFICATION_TYPE": "U",
    "NORAD_CAT_ID": 62593,
    "ELEMENT_SET_NO": 999,
    "REV_AT_EPOCH": 4849,
    "BSTAR": 0.0016494,
    "MEAN_MOTION_DOT": 0.00217631,
    "MEAN_MOTION_DDOT": 0.0,
    "TLE_LINE1": "1 62593U 25008G   25314.86914348  .00217631  00000+0  16494-2 0  9993",
    "TLE_LINE2": "2 62593  43.0021 122.6634 0001934 312.2816  47.7888 15.70928038 48491",
    "COMMENT": "Grouped by shell and plane from TLE"
  },
  {
    "OBJECT_NAME": "STARLINK-11416 [DTC]",
    "OBJECT_ID": "25008H",
    "EPOCH": "2025-11-10T19:50:22.445088",
    "MEAN_MOTION": 15.70925106,
    "ECCENTRICITY": 0.0003949,
    "INCLINATION": 43.002,
    "RA_OF_ASC_NODE": 122.2849,
    "ARG_OF_PERICENTER": 282.7628,
    "MEAN_ANOMALY": 77.2798,
    "EPHEMERIS_TYPE": 0,
    "CLASSIFICATION_TYPE": "U",
    "NORAD_CAT_ID": 62594,
    "ELEMENT_SET_NO": 999,
    "REV_AT_EPOCH": 4842,
    "BSTAR": 0.0019786,
    "MEAN_MOTION_DOT": 0.00262605,
    "MEAN_MOTION_DDOT": 0.0,
    "TLE_LINE1": "1 62594U 25008H   25314.82664867  .00262605  00000+0  19786-2 0  9996",
    "TLE_LINE2": "2 62594  43.0020 122.2849 0003949 282.7628  77.2798 15.70925106 48429",
    "COMMENT": "Grouped by shell and plane from TLE"
  },
  {
    "OBJECT_NAME": "STARLINK-11535 [DTC]",
    "OBJECT_ID": "25008J",
    "EPOCH": "2025-11-10T21:14:18.628512",
    "MEAN_MOTION": 15.7090347,
    "ECCENTRICITY": 0.0002197,
    "INCLINATION": 43.0002,
    "RA_OF_ASC_NODE": 121.894,
    "ARG_OF_PERICENTER": 267.0236,
    "MEAN_ANOMALY": 93.038,
    "EPHEMERIS_TYPE": 0,
    "CLASSIFICATION_TYPE": "U",
    "NORAD_CAT_ID": 62595,
    "ELEMENT_SET_NO": 999,
    "REV_AT_EPOCH": 4845,
    "BSTAR": 0.0014734,
    "MEAN_MOTION_DOT": 0.00193599,
    "MEAN_MOTION_DDOT": 0.0,
    "TLE_LINE1": "1 62595U 25008J   25314.88493783  .00193599  00000+0  14734-2 0  9993",
    "TLE_LINE2": "2 62595  43.0002 121.8940 0002197 267.0236  93.0380 15.70903470 48458",
    "COMMENT": "Grouped by shell and plane from TLE"
  },
  {
    "OBJECT_NAME": "STARLINK-11521 [DTC]",
    "OBJECT_ID": "25008L",
    "EPOCH": "2025-11-10T21:37:14.964960",
    "MEAN_MOTION": 15.70873378,
    "ECCENTRICITY": 0.0001707,
    "INCLINATION": 42.9995,
    "RA_OF_ASC_NODE": 122.0211,
    "ARG_OF_PERICENTER": 263.2865,
    "MEAN_ANOMALY": 96.7809,
    "EPHEMERIS_TYPE": 0,
    "CLASSIFICATION_TYPE": "U",
    "NORAD_CAT_ID": 62597,
    "ELEMENT_SET_NO": 999,
    "REV_AT_EPOCH": 4860,
    "BSTAR": 0.0012332999999999999,
    "MEAN_MOTION_DOT": 0.00161131,
    "MEAN_MOTION_DDOT": 0.0,
    "TLE_LINE1": "1 62597U 25008L   25314.90086765  .00161131  00000+0  12333-2 0  9996",
    "TLE_LINE2": "2 62597  42.9995 122.0211 0001707 263.2865  96.7809 15.70873378 48601",
    "COMMENT": "Grouped by shell and plane from TLE"
  }
]